{"epoch":1784799577,"count":18318,"objects":[{"id":"65047","name":"HULIANWANG DIGUI-44","type":"PAYLOAD","l1":"1 65047U 25162E   26203.84286917 -.00000092  00000-0  69867-4 0  9998","l2":"2 65047  50.0009 137.8090 0001436 357.3626   2.7238 13.29319001 48117"},{"id":"65048","name":"HULIANWANG DIGUI-45","type":"PAYLOAD","l1":"1 65048U 25162F   26203.83459371 -.00000089  00000-0  76074-4 0  9998","l2":"2 65048  50.0039 137.8510 0000269   4.4670 355.6204 13.29327643 48103"},{"id":"65049","name":"HULIANWANG DIGUI-46","type":"PAYLOAD","l1":"1 65049U 25162G   26203.90144427 -.00000090  00000-0  72998-4 0  9993","l2":"2 65049  50.0057 137.5891 0000224   4.5893 355.4981 13.29327409 48113"},{"id":"65050","name":"HULIANWANG DIGUI-47","type":"PAYLOAD","l1":"1 65050U 25162H   26203.89309347 -.00000094  00000-0  65708-4 0  9992","l2":"2 65050  50.0022 137.4465 0000231 353.0314   7.0555 13.29326971 48111"},{"id":"65051","name":"HULIANWANG DIGUI-48","type":"PAYLOAD","l1":"1 65051U 25162J   26203.88473164 -.00000093  00000-0  67187-4 0  9993","l2":"2 65051  50.0032 137.4306 0000261   2.1168 357.9705 13.29327647 48114"},{"id":"65106","name":"HULIANWANG DIGUI-49","type":"PAYLOAD","l1":"1 65106U 25168A   26203.94694455 -.00000079  00000-0  97727-4 0  9992","l2":"2 65106  50.0007 197.7106 0008226 214.6101 145.4236 13.29322397 47441"},{"id":"65107","name":"HULIANWANG DIGUI-50","type":"PAYLOAD","l1":"1 65107U 25168B   26203.93853965 -.00000081  00000-0  91844-4 0  9992","l2":"2 65107  49.9977 197.5788 0008810 200.3220 159.7303 13.29322126 47445"},{"id":"65108","name":"HULIANWANG DIGUI-51","type":"PAYLOAD","l1":"1 65108U 25168C   26203.92981726 -.00000081  00000-0  91722-4 0  9994","l2":"2 65108  50.0014 197.6412 0010128 199.3122 160.7368 13.29325318 47448"},{"id":"65109","name":"HULIANWANG DIGUI-52","type":"PAYLOAD","l1":"1 65109U 25168D   26203.92173060 -.00000081  00000-0  92173-4 0  9990","l2":"2 65109  50.0008 197.5750 0010394 211.9749 148.0494 13.29323214 47449"},{"id":"65110","name":"HULIANWANG DIGUI-53","type":"PAYLOAD","l1":"1 65110U 25168E   26203.91318322 -.00000085  00000-0  84151-4 0  9994","l2":"2 65110  50.0015 197.5605 0008860 202.9272 157.1206 13.29326583 47448"},{"id":"65111","name":"HULIANWANG DIGUI-54","type":"PAYLOAD","l1":"1 65111U 25168F   26203.88831579 -.00000076  00000-0  10317-3 0  9997","l2":"2 65111  49.9966 197.2891 0010655 207.1396 152.8920 13.29326700 47440"},{"id":"65112","name":"HULIANWANG DIGUI-55","type":"PAYLOAD","l1":"1 65112U 25168G   26203.90494257 -.00000078  00000-0  99041-4 0  9993","l2":"2 65112  49.9972 197.3891 0011744 203.1302 156.9043 13.29323009 47442"},{"id":"65113","name":"HULIANWANG DIGUI-56","type":"PAYLOAD","l1":"1 65113U 25168H   26203.89666121 -.00000081  00000-0  91753-4 0  9999","l2":"2 65113  49.9963 197.3218 0011934 223.0575 136.9364 13.29322432 47443"},{"id":"65114","name":"HULIANWANG DIGUI-57","type":"PAYLOAD","l1":"1 65114U 25168J   26203.87999348 -.00000077  00000-0  10048-3 0  9990","l2":"2 65114  49.9991 197.3200 0009516 215.3720 144.6522 13.29326684 47451"},{"id":"65164","name":"HULIANWANG DIGUI-58","type":"PAYLOAD","l1":"1 65164U 25174A   26203.92531059  .00000026  00000-0  26793-4 0  9997","l2":"2 65164  86.4939 239.9436 0001861 101.2909 258.8434 13.24407842 45522"},{"id":"65165","name":"HULIANWANG DIGUI-59","type":"PAYLOAD","l1":"1 65165U 25174B   26203.85735437  .00000021  00000-0  14757-4 0  9998","l2":"2 65165  86.4899 239.8436 0001942  99.4308 260.7046 13.24407882 45512"}]}