{"fetched_at":"2026-07-23T07:05:44.990Z","source":"https://celestrak.org/NORAD/elements/gp.php?NAME=HULIANWANG&FORMAT=JSON","constellation":"guowang","records":[{"OBJECT_NAME":"HULIANWANG DIGUI-44","OBJECT_ID":"2025-162E","EPOCH":"2026-07-22T20:13:43.896288","CLASSIFICATION_TYPE":"U","MEAN_MOTION":13.29319001,"ECCENTRICITY":0.00014358,"INCLINATION":50.0009,"RA_OF_ASC_NODE":137.809,"ARG_OF_PERICENTER":357.3626,"MEAN_ANOMALY":2.7238,"EPHEMERIS_TYPE":0,"NORAD_CAT_ID":65047,"ELEMENT_SET_NO":999,"REV_AT_EPOCH":4811,"BSTAR":0.000069866566,"MEAN_MOTION_DOT":-9.2e-7,"MEAN_MOTION_DDOT":0},{"OBJECT_NAME":"HULIANWANG DIGUI-45","OBJECT_ID":"2025-162F","EPOCH":"2026-07-22T20:01:48.896544","CLASSIFICATION_TYPE":"U","MEAN_MOTION":13.29327643,"ECCENTRICITY":0.00002689,"INCLINATION":50.0039,"RA_OF_ASC_NODE":137.851,"ARG_OF_PERICENTER":4.467,"MEAN_ANOMALY":355.6204,"EPHEMERIS_TYPE":0,"NORAD_CAT_ID":65048,"ELEMENT_SET_NO":999,"REV_AT_EPOCH":4810,"BSTAR":0.000076073926,"MEAN_MOTION_DOT":-8.9e-7,"MEAN_MOTION_DDOT":0},{"OBJECT_NAME":"HULIANWANG DIGUI-46","OBJECT_ID":"2025-162G","EPOCH":"2026-07-22T21:38:04.784928","CLASSIFICATION_TYPE":"U","MEAN_MOTION":13.29327409,"ECCENTRICITY":0.00002245,"INCLINATION":50.0057,"RA_OF_ASC_NODE":137.5891,"ARG_OF_PERICENTER":4.5893,"MEAN_ANOMALY":355.4981,"EPHEMERIS_TYPE":0,"NORAD_CAT_ID":65049,"ELEMENT_SET_NO":999,"REV_AT_EPOCH":4811,"BSTAR":0.00007299784,"MEAN_MOTION_DOT":-9e-7,"MEAN_MOTION_DDOT":0},{"OBJECT_NAME":"HULIANWANG DIGUI-47","OBJECT_ID":"2025-162H","EPOCH":"2026-07-22T21:26:03.275808","CLASSIFICATION_TYPE":"U","MEAN_MOTION":13.29326971,"ECCENTRICITY":0.00002306,"INCLINATION":50.0022,"RA_OF_ASC_NODE":137.4465,"ARG_OF_PERICENTER":353.0314,"MEAN_ANOMALY":7.0555,"EPHEMERIS_TYPE":0,"NORAD_CAT_ID":65050,"ELEMENT_SET_NO":999,"REV_AT_EPOCH":4811,"BSTAR":0.000065708024,"MEAN_MOTION_DOT":-9.4e-7,"MEAN_MOTION_DDOT":0},{"OBJECT_NAME":"HULIANWANG DIGUI-48","OBJECT_ID":"2025-162J","EPOCH":"2026-07-22T21:14:00.813696","CLASSIFICATION_TYPE":"U","MEAN_MOTION":13.29327647,"ECCENTRICITY":0.00002613,"INCLINATION":50.0032,"RA_OF_ASC_NODE":137.4306,"ARG_OF_PERICENTER":2.1168,"MEAN_ANOMALY":357.9705,"EPHEMERIS_TYPE":0,"NORAD_CAT_ID":65051,"ELEMENT_SET_NO":999,"REV_AT_EPOCH":4811,"BSTAR":0.000067186891,"MEAN_MOTION_DOT":-9.3e-7,"MEAN_MOTION_DDOT":0},{"OBJECT_NAME":"HULIANWANG DIGUI-49","OBJECT_ID":"2025-168A","EPOCH":"2026-07-22T22:43:36.009120","CLASSIFICATION_TYPE":"U","MEAN_MOTION":13.29322397,"ECCENTRICITY":0.00082258,"INCLINATION":50.0007,"RA_OF_ASC_NODE":197.7106,"ARG_OF_PERICENTER":214.6101,"MEAN_ANOMALY":145.4236,"EPHEMERIS_TYPE":0,"NORAD_CAT_ID":65106,"ELEMENT_SET_NO":999,"REV_AT_EPOCH":4744,"BSTAR":0.00009772736,"MEAN_MOTION_DOT":-7.9e-7,"MEAN_MOTION_DDOT":0},{"OBJECT_NAME":"HULIANWANG DIGUI-50","OBJECT_ID":"2025-168B","EPOCH":"2026-07-22T22:31:29.825760","CLASSIFICATION_TYPE":"U","MEAN_MOTION":13.29322126,"ECCENTRICITY":0.000881,"INCLINATION":49.9977,"RA_OF_ASC_NODE":197.5788,"ARG_OF_PERICENTER":200.322,"MEAN_ANOMALY":159.7303,"EPHEMERIS_TYPE":0,"NORAD_CAT_ID":65107,"ELEMENT_SET_NO":999,"REV_AT_EPOCH":4744,"BSTAR":0.000091844246,"MEAN_MOTION_DOT":-8.1e-7,"MEAN_MOTION_DDOT":0},{"OBJECT_NAME":"HULIANWANG DIGUI-51","OBJECT_ID":"2025-168C","EPOCH":"2026-07-22T22:18:56.211264","CLASSIFICATION_TYPE":"U","MEAN_MOTION":13.29325318,"ECCENTRICITY":0.00101284,"INCLINATION":50.0014,"RA_OF_ASC_NODE":197.6412,"ARG_OF_PERICENTER":199.3122,"MEAN_ANOMALY":160.7368,"EPHEMERIS_TYPE":0,"NORAD_CAT_ID":65108,"ELEMENT_SET_NO":999,"REV_AT_EPOCH":4744,"BSTAR":0.000091722123,"MEAN_MOTION_DOT":-8.1e-7,"MEAN_MOTION_DDOT":0},{"OBJECT_NAME":"HULIANWANG DIGUI-52","OBJECT_ID":"2025-168D","EPOCH":"2026-07-22T22:07:17.523840","CLASSIFICATION_TYPE":"U","MEAN_MOTION":13.29323214,"ECCENTRICITY":0.00103943,"INCLINATION":50.0008,"RA_OF_ASC_NODE":197.575,"ARG_OF_PERICENTER":211.9749,"MEAN_ANOMALY":148.0494,"EPHEMERIS_TYPE":0,"NORAD_CAT_ID":65109,"ELEMENT_SET_NO":999,"REV_AT_EPOCH":4744,"BSTAR":0.000092172609,"MEAN_MOTION_DOT":-8.1e-7,"MEAN_MOTION_DDOT":0},{"OBJECT_NAME":"HULIANWANG DIGUI-53","OBJECT_ID":"2025-168E","EPOCH":"2026-07-22T21:54:59.030208","CLASSIFICATION_TYPE":"U","MEAN_MOTION":13.29326583,"ECCENTRICITY":0.00088598,"INCLINATION":50.0015,"RA_OF_ASC_NODE":197.5605,"ARG_OF_PERICENTER":202.9272,"MEAN_ANOMALY":157.1206,"EPHEMERIS_TYPE":0,"NORAD_CAT_ID":65110,"ELEMENT_SET_NO":999,"REV_AT_EPOCH":4744,"BSTAR":0.000084151385,"MEAN_MOTION_DOT":-8.5e-7,"MEAN_MOTION_DDOT":0},{"OBJECT_NAME":"HULIANWANG DIGUI-54","OBJECT_ID":"2025-168F","EPOCH":"2026-07-22T21:19:10.484256","CLASSIFICATION_TYPE":"U","MEAN_MOTION":13.293267,"ECCENTRICITY":0.00106555,"INCLINATION":49.9966,"RA_OF_ASC_NODE":197.2891,"ARG_OF_PERICENTER":207.1396,"MEAN_ANOMALY":152.892,"EPHEMERIS_TYPE":0,"NORAD_CAT_ID":65111,"ELEMENT_SET_NO":999,"REV_AT_EPOCH":4744,"BSTAR":0.0001031671,"MEAN_MOTION_DOT":-7.6e-7,"MEAN_MOTION_DDOT":0},{"OBJECT_NAME":"HULIANWANG DIGUI-55","OBJECT_ID":"2025-168G","EPOCH":"2026-07-22T21:43:07.038048","CLASSIFICATION_TYPE":"U","MEAN_MOTION":13.29323009,"ECCENTRICITY":0.00117442,"INCLINATION":49.9972,"RA_OF_ASC_NODE":197.3891,"ARG_OF_PERICENTER":203.1302,"MEAN_ANOMALY":156.9043,"EPHEMERIS_TYPE":0,"NORAD_CAT_ID":65112,"ELEMENT_SET_NO":999,"REV_AT_EPOCH":4744,"BSTAR":0.000099041071,"MEAN_MOTION_DOT":-7.8e-7,"MEAN_MOTION_DDOT":0},{"OBJECT_NAME":"HULIANWANG DIGUI-56","OBJECT_ID":"2025-168H","EPOCH":"2026-07-22T21:31:11.528544","CLASSIFICATION_TYPE":"U","MEAN_MOTION":13.29322432,"ECCENTRICITY":0.0011934,"INCLINATION":49.9963,"RA_OF_ASC_NODE":197.3218,"ARG_OF_PERICENTER":223.0575,"MEAN_ANOMALY":136.9364,"EPHEMERIS_TYPE":0,"NORAD_CAT_ID":65113,"ELEMENT_SET_NO":999,"REV_AT_EPOCH":4744,"BSTAR":0.000091752979,"MEAN_MOTION_DOT":-8.1e-7,"MEAN_MOTION_DDOT":0},{"OBJECT_NAME":"HULIANWANG DIGUI-57","OBJECT_ID":"2025-168J","EPOCH":"2026-07-22T21:07:11.436672","CLASSIFICATION_TYPE":"U","MEAN_MOTION":13.29326684,"ECCENTRICITY":0.00095156,"INCLINATION":49.9991,"RA_OF_ASC_NODE":197.32,"ARG_OF_PERICENTER":215.372,"MEAN_ANOMALY":144.6522,"EPHEMERIS_TYPE":0,"NORAD_CAT_ID":65114,"ELEMENT_SET_NO":999,"REV_AT_EPOCH":4745,"BSTAR":0.0001004768,"MEAN_MOTION_DOT":-7.7e-7,"MEAN_MOTION_DDOT":0},{"OBJECT_NAME":"HULIANWANG DIGUI-58","OBJECT_ID":"2025-174A","EPOCH":"2026-07-22T22:12:26.834976","CLASSIFICATION_TYPE":"U","MEAN_MOTION":13.24407842,"ECCENTRICITY":0.0001861,"INCLINATION":86.4939,"RA_OF_ASC_NODE":239.9436,"ARG_OF_PERICENTER":101.2909,"MEAN_ANOMALY":258.8434,"EPHEMERIS_TYPE":0,"NORAD_CAT_ID":65164,"ELEMENT_SET_NO":999,"REV_AT_EPOCH":4552,"BSTAR":0.000026792761,"MEAN_MOTION_DOT":2.6e-7,"MEAN_MOTION_DDOT":0},{"OBJECT_NAME":"HULIANWANG DIGUI-59","OBJECT_ID":"2025-174B","EPOCH":"2026-07-22T20:34:35.417568","CLASSIFICATION_TYPE":"U","MEAN_MOTION":13.24407882,"ECCENTRICITY":0.00019425,"INCLINATION":86.4899,"RA_OF_ASC_NODE":239.8436,"ARG_OF_PERICENTER":99.4308,"MEAN_ANOMALY":260.7046,"EPHEMERIS_TYPE":0,"NORAD_CAT_ID":65165,"ELEMENT_SET_NO":999,"REV_AT_EPOCH":4551,"BSTAR":0.000014756675,"MEAN_MOTION_DOT":2.1e-7,"MEAN_MOTION_DDOT":0}]}
